{"type": "FeatureCollection", "features": [{"type": "Feature", "geometry": {"type": "Polygon", "coordinates": [[[88.170145, 27.9286913], [88.1703962, 27.9286915], [88.1703963, 27.9285917], [88.1701451, 27.9285915], [88.170145, 27.9286913]]]}, "properties": {"tile_id": "10300100E34B4D00_120220030330_r000_c016", "class": "helicopter", "score": 0.658, "long_side_px": 81.0, "heading_deg": 179.4}}], "properties": {"model": {"model": "YoloObbDetectionModel", "weights": "C:\\Users\\Prash\\Downloads\\SIH 2026\\geoseek\\data\\models\\detector\\geoseek_obb_v15_yolo26s.pt", "weights_sha256": "67f617170b608dd1541d63f4aedbd3b4752cbda9f67702e0d63f4aaaae31e113", "architecture": {"family": "Ultralytics YOLO26s-OBB", "head": "OBB26", "n_params": 10526414, "input": "RGB, 1024x1024 (larger inputs are windowed with 200 px overlap)", "dual_head": "one-to-many (NMS) + one-to-one (NMS-free); inference here uses the NMS path (better on dense scenes: monitor mAP50 0.821 vs 0.810 for the NMS-free head at epoch 0)", "ultralytics_version_trained_with": "8.4.152", "torch": "2.2.2"}, "classes": ["small-vehicle", "large-vehicle", "ship", "plane", "helicopter", "storage-tank", "harbor", "bridge"], "min_score_default": 0.525, "nms_iou": 0.7, "max_det": 1000, "imgsz": 1024}, "observation_id": "10300100E34B4D00_120220030330"}}