{"type": "FeatureCollection", "features": [{"type": "Feature", "geometry": {"type": "Polygon", "coordinates": [[[88.6438492, 27.6039349], [88.6439167, 27.6038816], [88.643892, 27.6038568], [88.6438245, 27.6039101], [88.6438492, 27.6039349]]]}, "properties": {"tile_id": "10300100CE8D0400_120220122202_r002_c007", "class": "small-vehicle", "score": 0.551, "long_side_px": 29.2, "heading_deg": 40.8}}, {"type": "Feature", "geometry": {"type": "Polygon", "coordinates": [[[88.6463181, 27.6016984], [88.646673, 27.6019567], [88.6467523, 27.6018702], [88.6463973, 27.6016119], [88.6463181, 27.6016984]]]}, "properties": {"tile_id": "10300100CE8D0400_120220122202_r003_c008", "class": "bridge", "score": 0.701, "long_side_px": 148.2, "heading_deg": 140.0}}, {"type": "Feature", "geometry": {"type": "Polygon", "coordinates": [[[88.648085, 27.5989165], [88.6481213, 27.5989294], [88.6481839, 27.5987885], [88.6481476, 27.5987757], [88.648085, 27.5989165]]]}, "properties": {"tile_id": "10300100CE8D0400_120220122202_r004_c009", "class": "large-vehicle", "score": 0.535, "long_side_px": 55.0, "heading_deg": 67.6}}, {"type": "Feature", "geometry": {"type": "Polygon", "coordinates": [[[88.6512108, 27.567898], [88.6512793, 27.5679301], [88.6513177, 27.5678649], [88.6512493, 27.5678329], [88.6512108, 27.567898]]]}, "properties": {"tile_id": "10300100CE8D0400_120220122202_r015_c010", "class": "storage-tank", "score": 0.696, "long_side_px": 26.7, "heading_deg": 61.5}}, {"type": "Feature", "geometry": {"type": "Polygon", "coordinates": [[[88.6512732, 27.5679539], [88.6513419, 27.5679839], [88.651379, 27.5679163], [88.6513103, 27.5678864], [88.6512732, 27.5679539]]]}, "properties": {"tile_id": "10300100CE8D0400_120220122202_r015_c010", "class": "storage-tank", "score": 0.691, "long_side_px": 27.3, "heading_deg": 63.2}}], "properties": {"model": {"model": "YoloObbDetectionModel", "weights": "C:\\Users\\Prash\\Downloads\\SIH 2026\\geoseek\\data\\models\\detector\\geoseek_obb_v15_yolo26s.pt", "weights_sha256": "67f617170b608dd1541d63f4aedbd3b4752cbda9f67702e0d63f4aaaae31e113", "architecture": {"family": "Ultralytics YOLO26s-OBB", "head": "OBB26", "n_params": 10526414, "input": "RGB, 1024x1024 (larger inputs are windowed with 200 px overlap)", "dual_head": "one-to-many (NMS) + one-to-one (NMS-free); inference here uses the NMS path (better on dense scenes: monitor mAP50 0.821 vs 0.810 for the NMS-free head at epoch 0)", "ultralytics_version_trained_with": "8.4.152", "torch": "2.2.2"}, "classes": ["small-vehicle", "large-vehicle", "ship", "plane", "helicopter", "storage-tank", "harbor", "bridge"], "min_score_default": 0.525, "nms_iou": 0.7, "max_det": 1000, "imgsz": 1024}, "observation_id": "10300100CE8D0400_120220122202"}}