{"type": "FeatureCollection", "features": [{"type": "Feature", "geometry": {"type": "Polygon", "coordinates": [[[88.1228921, 27.9015414], [88.1234001, 27.9013232], [88.1230226, 27.9006294], [88.1225146, 27.9008476], [88.1228921, 27.9015414]]]}, "properties": {"tile_id": "1050010036A0EC00_120220030330_r010_c002", "class": "helicopter", "score": 0.626, "long_side_px": 279.8, "heading_deg": 115.3}}], "properties": {"model": {"model": "YoloObbDetectionModel", "weights": "C:\\Users\\Prash\\Downloads\\SIH 2026\\geoseek\\data\\models\\detector\\geoseek_obb_v15_yolo26s.pt", "weights_sha256": "67f617170b608dd1541d63f4aedbd3b4752cbda9f67702e0d63f4aaaae31e113", "architecture": {"family": "Ultralytics YOLO26s-OBB", "head": "OBB26", "n_params": 10526414, "input": "RGB, 1024x1024 (larger inputs are windowed with 200 px overlap)", "dual_head": "one-to-many (NMS) + one-to-one (NMS-free); inference here uses the NMS path (better on dense scenes: monitor mAP50 0.821 vs 0.810 for the NMS-free head at epoch 0)", "ultralytics_version_trained_with": "8.4.152", "torch": "2.2.2"}, "classes": ["small-vehicle", "large-vehicle", "ship", "plane", "helicopter", "storage-tank", "harbor", "bridge"], "min_score_default": 0.525, "nms_iou": 0.7, "max_det": 1000, "imgsz": 1024}, "observation_id": "1050010036A0EC00_120220030330"}}